[{"OBJECT_NAME":"STARLINK-5852","OBJECT_ID":"2023-037V","EPOCH":"2025-10-03T05:48:01.702368","MEAN_MOTION":14.98328904,"ECCENTRICITY":0.00029472,"INCLINATION":69.999,"RA_OF_ASC_NODE":321.5394,"ARG_OF_PERICENTER":266.8832,"MEAN_ANOMALY":93.199,"EPHEMERIS_TYPE":0,"CLASSIFICATION_TYPE":"U","NORAD_CAT_ID":55933,"ELEMENT_SET_NO":999,"REV_AT_EPOCH":14039,"BSTAR":3.7471423e-5,"MEAN_MOTION_DOT":3.54e-6,"MEAN_MOTION_DDOT":0},{"OBJECT_NAME":"STARLINK-5927","OBJECT_ID":"2023-037W","EPOCH":"2025-10-03T06:48:20.075616","MEAN_MOTION":14.98327378,"ECCENTRICITY":0.00030563,"INCLINATION":69.999,"RA_OF_ASC_NODE":321.2794,"ARG_OF_PERICENTER":266.2677,"MEAN_ANOMALY":93.8133,"EPHEMERIS_TYPE":0,"CLASSIFICATION_TYPE":"U","NORAD_CAT_ID":55934,"ELEMENT_SET_NO":999,"REV_AT_EPOCH":14040,"BSTAR":9.1618709e-5,"MEAN_MOTION_DOT":1.0e-5,"MEAN_MOTION_DDOT":0},{"OBJECT_NAME":"STARLINK-5920","OBJECT_ID":"2023-037X","EPOCH":"2025-10-03T07:18:09.201888","MEAN_MOTION":14.98316351,"ECCENTRICITY":0.00031822,"INCLINATION":69.9989,"RA_OF_ASC_NODE":321.3529,"ARG_OF_PERICENTER":268.7096,"MEAN_ANOMALY":91.3699,"EPHEMERIS_TYPE":0,"CLASSIFICATION_TYPE":"U","NORAD_CAT_ID":55935,"ELEMENT_SET_NO":999,"REV_AT_EPOCH":14040,"BSTAR":2.1746179e-5,"MEAN_MOTION_DOT":1.66e-6,"MEAN_MOTION_DDOT":0},{"OBJECT_NAME":"STARLINK-5882","OBJECT_ID":"2023-037Y","EPOCH":"2025-10-03T05:53:40.666848","MEAN_MOTION":14.98325072,"ECCENTRICITY":0.00032032,"INCLINATION":69.9977,"RA_OF_ASC_NODE":301.2638,"ARG_OF_PERICENTER":271.8937,"MEAN_ANOMALY":88.1855,"EPHEMERIS_TYPE":0,"CLASSIFICATION_TYPE":"U","NORAD_CAT_ID":55936,"ELEMENT_SET_NO":999,"REV_AT_EPOCH":14089,"BSTAR":8.9984761e-5,"MEAN_MOTION_DOT":9.81e-6,"MEAN_MOTION_DDOT":0},{"OBJECT_NAME":"STARLINK-5913","OBJECT_ID":"2023-037Z","EPOCH":"2025-10-03T07:12:08.962272","MEAN_MOTION":14.98324546,"ECCENTRICITY":0.00036336,"INCLINATION":69.9981,"RA_OF_ASC_NODE":321.3367,"ARG_OF_PERICENTER":269.9551,"MEAN_ANOMALY":90.1192,"EPHEMERIS_TYPE":0,"CLASSIFICATION_TYPE":"U","NORAD_CAT_ID":55937,"ELEMENT_SET_NO":999,"REV_AT_EPOCH":14040,"BSTAR":-0.00015814302,"MEAN_MOTION_DOT":-1.979e-5,"MEAN_MOTION_DDOT":0},{"OBJECT_NAME":"STARLINK-5909","OBJECT_ID":"2023-037AA","EPOCH":"2025-10-03T07:06:08.605152","MEAN_MOTION":14.98297814,"ECCENTRICITY":0.0003637,"INCLINATION":69.9956,"RA_OF_ASC_NODE":321.3237,"ARG_OF_PERICENTER":267.7212,"MEAN_ANOMALY":92.353,"EPHEMERIS_TYPE":0,"CLASSIFICATION_TYPE":"U","NORAD_CAT_ID":55938,"ELEMENT_SET_NO":999,"REV_AT_EPOCH":14040,"BSTAR":-4.8387894e-5,"MEAN_MOTION_DOT":-6.7e-6,"MEAN_MOTION_DDOT":0},{"OBJECT_NAME":"STARLINK-5918","OBJECT_ID":"2023-037AB","EPOCH":"2025-10-03T06:54:06.994944","MEAN_MOTION":14.98317286,"ECCENTRICITY":0.00033497,"INCLINATION":69.9986,"RA_OF_ASC_NODE":321.294,"ARG_OF_PERICENTER":274.0073,"MEAN_ANOMALY":86.0703,"EPHEMERIS_TYPE":0,"CLASSIFICATION_TYPE":"U","NORAD_CAT_ID":55939,"ELEMENT_SET_NO":999,"REV_AT_EPOCH":14040,"BSTAR":0.00048788411,"MEAN_MOTION_DOT":5.731e-5,"MEAN_MOTION_DDOT":0},{"OBJECT_NAME":"STARLINK-5864","OBJECT_ID":"2023-037AC","EPOCH":"2025-10-03T07:00:07.712352","MEAN_MOTION":14.98293722,"ECCENTRICITY":0.00036814,"INCLINATION":69.9985,"RA_OF_ASC_NODE":321.309,"ARG_OF_PERICENTER":261.8354,"MEAN_ANOMALY":98.2387,"EPHEMERIS_TYPE":0,"CLASSIFICATION_TYPE":"U","NORAD_CAT_ID":55940,"ELEMENT_SET_NO":999,"REV_AT_EPOCH":14040,"BSTAR":0.00057545356,"MEAN_MOTION_DOT":6.774e-5,"MEAN_MOTION_DDOT":0},{"OBJECT_NAME":"STARLINK-5914","OBJECT_ID":"2023-037AD","EPOCH":"2025-10-03T06:00:02.992896","MEAN_MOTION":14.98328967,"ECCENTRICITY":0.00029965,"INCLINATION":69.9988,"RA_OF_ASC_NODE":321.5657,"ARG_OF_PERICENTER":266.9355,"MEAN_ANOMALY":93.1461,"EPHEMERIS_TYPE":0,"CLASSIFICATION_TYPE":"U","NORAD_CAT_ID":55941,"ELEMENT_SET_NO":999,"REV_AT_EPOCH":14039,"BSTAR":6.8287978e-5,"MEAN_MOTION_DOT":7.22e-6,"MEAN_MOTION_DDOT":0},{"OBJECT_NAME":"STARLINK-5917","OBJECT_ID":"2023-037AE","EPOCH":"2025-10-03T06:23:59.650368","MEAN_MOTION":14.98374129,"ECCENTRICITY":0.00029195,"INCLINATION":69.9996,"RA_OF_ASC_NODE":321.2199,"ARG_OF_PERICENTER":234.6551,"MEAN_ANOMALY":125.4335,"EPHEMERIS_TYPE":0,"CLASSIFICATION_TYPE":"U","NORAD_CAT_ID":55942,"ELEMENT_SET_NO":999,"REV_AT_EPOCH":14040,"BSTAR":0.00050583861,"MEAN_MOTION_DOT":5.955e-5,"MEAN_MOTION_DDOT":0},{"OBJECT_NAME":"STARLINK-5932","OBJECT_ID":"2023-037AF","EPOCH":"2025-10-03T06:36:05.890752","MEAN_MOTION":14.98319362,"ECCENTRICITY":0.00030299,"INCLINATION":69.9991,"RA_OF_ASC_NODE":321.2392,"ARG_OF_PERICENTER":265.9347,"MEAN_ANOMALY":94.1465,"EPHEMERIS_TYPE":0,"CLASSIFICATION_TYPE":"U","NORAD_CAT_ID":55943,"ELEMENT_SET_NO":999,"REV_AT_EPOCH":14040,"BSTAR":0.00026123927,"MEAN_MOTION_DOT":3.025e-5,"MEAN_MOTION_DDOT":0},{"OBJECT_NAME":"STARLINK-5926","OBJECT_ID":"2023-037AG","EPOCH":"2025-10-03T06:30:03.838464","MEAN_MOTION":14.98326188,"ECCENTRICITY":0.00030207,"INCLINATION":69.9991,"RA_OF_ASC_NODE":321.2336,"ARG_OF_PERICENTER":267.1895,"MEAN_ANOMALY":92.8918,"EPHEMERIS_TYPE":0,"CLASSIFICATION_TYPE":"U","NORAD_CAT_ID":55944,"ELEMENT_SET_NO":999,"REV_AT_EPOCH":14040,"BSTAR":0.00012890224,"MEAN_MOTION_DOT":1.445e-5,"MEAN_MOTION_DDOT":0},{"OBJECT_NAME":"STARLINK-5925","OBJECT_ID":"2023-037AH","EPOCH":"2025-10-03T06:42:19.117152","MEAN_MOTION":14.98331043,"ECCENTRICITY":0.00034584,"INCLINATION":69.9992,"RA_OF_ASC_NODE":321.2657,"ARG_OF_PERICENTER":267.7992,"MEAN_ANOMALY":92.2771,"EPHEMERIS_TYPE":0,"CLASSIFICATION_TYPE":"U","NORAD_CAT_ID":55945,"ELEMENT_SET_NO":999,"REV_AT_EPOCH":14040,"BSTAR":0.00010299868,"MEAN_MOTION_DOT":1.136e-5,"MEAN_MOTION_DDOT":0},{"OBJECT_NAME":"STARLINK-5857","OBJECT_ID":"2023-037AJ","EPOCH":"2025-10-03T06:42:05.155776","MEAN_MOTION":14.98328277,"ECCENTRICITY":0.00031073,"INCLINATION":69.9989,"RA_OF_ASC_NODE":321.2635,"ARG_OF_PERICENTER":268.2967,"MEAN_ANOMALY":91.7836,"EPHEMERIS_TYPE":0,"CLASSIFICATION_TYPE":"U","NORAD_CAT_ID":55946,"ELEMENT_SET_NO":999,"REV_AT_EPOCH":14039,"BSTAR":4.382282e-5,"MEAN_MOTION_DOT":4.3e-6,"MEAN_MOTION_DDOT":0},{"OBJECT_NAME":"STARLINK-5851","OBJECT_ID":"2023-037AK","EPOCH":"2025-10-03T04:42:08.972352","MEAN_MOTION":14.98325673,"ECCENTRICITY":0.00030777,"INCLINATION":69.9993,"RA_OF_ASC_NODE":321.3752,"ARG_OF_PERICENTER":268.0913,"MEAN_ANOMALY":91.9894,"EPHEMERIS_TYPE":0,"CLASSIFICATION_TYPE":"U","NORAD_CAT_ID":55947,"ELEMENT_SET_NO":999,"REV_AT_EPOCH":14039,"BSTAR":7.9439855e-5,"MEAN_MOTION_DOT":8.55e-6,"MEAN_MOTION_DDOT":0},{"OBJECT_NAME":"STARLINK-5900","OBJECT_ID":"2023-037AL","EPOCH":"2025-10-03T06:59:47.671008","MEAN_MOTION":14.98329277,"ECCENTRICITY":0.00032763,"INCLINATION":69.9979,"RA_OF_ASC_NODE":301.4265,"ARG_OF_PERICENTER":268.0494,"MEAN_ANOMALY":92.029,"EPHEMERIS_TYPE":0,"CLASSIFICATION_TYPE":"U","NORAD_CAT_ID":55948,"ELEMENT_SET_NO":999,"REV_AT_EPOCH":14089,"BSTAR":4.2287505e-5,"MEAN_MOTION_DOT":4.12e-6,"MEAN_MOTION_DDOT":0}]
