STARLINK-5852           
1 55933U 23037V   25276.24168637  .00000354  00000+0  37471-4 0  9996
2 55933  69.9990 321.5394 0002947 266.8832  93.1990 14.98328904140399
STARLINK-5927           
1 55934U 23037W   25276.28356569  .00001000  00000+0  91619-4 0  9997
2 55934  69.9990 321.2794 0003056 266.2677  93.8133 14.98327378140406
STARLINK-5920           
1 55935U 23037X   25276.30427317  .00000166  00000+0  21746-4 0  9997
2 55935  69.9989 321.3529 0003182 268.7096  91.3699 14.98316351140403
STARLINK-5882           
1 55936U 23037Y   25276.24560957  .00000981  00000+0  89985-4 0  9993
2 55936  69.9977 301.2638 0003203 271.8937  88.1855 14.98325072140893
STARLINK-5913           
1 55937U 23037Z   25276.30010373 -.00001979  00000+0 -15814-3 0  9992
2 55937  69.9981 321.3367 0003633 269.9551  90.1192 14.98324546140407
STARLINK-5909           
1 55938U 23037AA  25276.29593293 -.00000670  00000+0 -48388-4 0  9998
2 55938  69.9956 321.3237 0003637 267.7212  92.3530 14.98297814140407
STARLINK-5918           
1 55939U 23037AB  25276.28758096  .00005731  00000+0  48788-3 0  9996
2 55939  69.9986 321.2940 0003349 274.0073  86.0703 14.98317286140405
STARLINK-5864           
1 55940U 23037AC  25276.29175593  .00006774  00000+0  57545-3 0  9993
2 55940  69.9985 321.3090 0003681 261.8354  98.2387 14.98293722140409
STARLINK-5914           
1 55941U 23037AD  25276.25003464  .00000722  00000+0  68288-4 0  9991
2 55941  69.9988 321.5657 0002996 266.9355  93.1461 14.98328967140394
STARLINK-5917           
1 55942U 23037AE  25276.26666262  .00005955  00000+0  50584-3 0  9996
2 55942  69.9996 321.2199 0002919 234.6551 125.4335 14.98374129140409
STARLINK-5932           
1 55943U 23037AF  25276.27506818  .00003025  00000+0  26124-3 0  9997
2 55943  69.9991 321.2392 0003029 265.9347  94.1465 14.98319362140407
STARLINK-5926           
1 55944U 23037AG  25276.27087776  .00001445  00000+0  12890-3 0  9994
2 55944  69.9991 321.2336 0003020 267.1895  92.8918 14.98326188140401
STARLINK-5925           
1 55945U 23037AH  25276.27938793  .00001136  00000+0  10300-3 0  9990
2 55945  69.9992 321.2657 0003458 267.7992  92.2771 14.98331043140405
STARLINK-5857           
1 55946U 23037AJ  25276.27922634  .00000430  00000+0  43823-4 0  9991
2 55946  69.9989 321.2635 0003107 268.2967  91.7836 14.98328277140396
STARLINK-5851           
1 55947U 23037AK  25276.19593718  .00000855  00000+0  79440-4 0  9995
2 55947  69.9993 321.3752 0003077 268.0913  91.9894 14.98325673140391
STARLINK-5900           
1 55948U 23037AL  25276.29152397  .00000412  00000+0  42288-4 0  9990
2 55948  69.9979 301.4265 0003276 268.0494  92.0290 14.98329277140890
